IRIDIUM 155             
1 43573U 18061E   26022.22511393  .00000367  00000+0  12406-3 0  9997
2 43573  86.3983 117.7261 0002248  93.3657 266.7796 14.34221792392434
IRIDIUM 154             
1 43574U 18061F   26022.27585599  .00000660  00000+0  22865-3 0  9998
2 43574  86.3989 117.8313 0002051  95.2828 264.8602 14.34222177392492
IRIDIUM 163             
1 43575U 18061G   26022.25682807  .00000522  00000+0  17916-3 0  9995
2 43575  86.3984 117.7590 0002204  99.3271 260.8174 14.34219196392465
IRIDIUM 156             
1 43576U 18061H   26022.23146066  .00000503  00000+0  17241-3 0  9996
2 43576  86.3983 117.7764 0002259  90.8616 269.2839 14.34220013392457
IRIDIUM 164             
1 43577U 18061J   26022.21243202  .00000377  00000+0  12758-3 0  9992
2 43577  86.3982 117.8228 0001949  96.0318 264.1100 14.34220103392494
IRIDIUM 159             
1 43578U 18061K   26022.25048843  .00000210  00000+0  67974-4 0  9998
2 43578  86.3987 117.7472 0002099 100.3949 259.7484 14.34219694392461
IRIDIUM 180             
1 43922U 19002A   26022.31975464  .00000069  00000+0  17546-4 0  9994
2 43922  86.3929  54.5672 0002240  96.8115 263.3335 14.34218457368085
IRIDIUM 176             
1 43923U 19002B   26022.09642420  .00001623  00000+0  25338-3 0  9997
2 43923  86.6050  54.6251 0002625  91.9038 268.2479 14.72262877377759
IRIDIUM 168             
1 43924U 19002C   26022.31340953  .00000311  00000+0  10416-3 0  9993
2 43924  86.3931  54.6429 0002233  92.7257 267.4195 14.34220205368066
IRIDIUM 173             
1 43925U 19002D   26022.16118930  .00000228  00000+0  74452-4 0  9993
2 43925  86.3928  54.6014 0002374  93.4325 266.7142 14.34219237368026
IRIDIUM 169             
1 43926U 19002E   26022.25467567  .00000610  00000+0  19277-3 0  9995
2 43926  86.4198  86.2250 0003064  89.2154 270.9396 14.38607950369240
IRIDIUM 172             
1 43927U 19002F   26022.15484666  .00000126  00000+0  38055-4 0  9992
2 43927  86.3927  54.6115 0002156  97.6367 262.5074 14.34218898368030
IRIDIUM 175             
1 43928U 19002G   26022.22764578  .00001665  00000+0  26017-3 0  9997
2 43928  86.1523 354.6944 0002051  55.4317 304.7093 14.72238184377767
IRIDIUM 171             
1 43929U 19002H   26022.06605085  .00000060  00000+0  14478-4 0  9994
2 43929  86.3938  54.9393 0002212  87.1281 273.0168 14.34218521368019
IRIDIUM 170             
1 43930U 19002J   26022.17052192  .00001215  00000+0  18885-3 0  9991
2 43930  86.6054  54.5974 0002340  87.1963 272.9522 14.72250417377770
IRIDIUM 167             
1 43931U 19002K   26022.05970850  .00000099  00000+0  28362-4 0  9990
2 43931  86.3929  54.6727 0002378  83.2239 276.9227 14.34218646368019
IRIDIUM 181             
1 56726U 23068S   26022.23740911  .00000595  00000+0  17068-3 0  9997
2 56726  86.4513 117.8152 0001621  91.5935 268.5452 14.43308904141387
IRIDIUM 177             
1 56727U 23068T   26022.30309295  .00001214  00000+0  15631-3 0  9995
2 56727  86.1940  38.0554 0002354  89.1857 270.9634 14.80229969144789
IRIDIUM 174             
1 56728U 23068U   26022.15816586  .00000927  00000+0  14306-3 0  9993
2 56728  86.6059  54.7355 0002351  92.1070 268.0417 14.72257355144539
IRIDIUM 178             
1 56729U 23068V   26022.22461084  .00001253  00000+0  16135-3 0  9996
2 56729  86.6515  86.3818 0002184  87.1779 272.9693 14.80254179144772
IRIDIUM 179             
1 56730U 23068W   26022.21923783  .00002693  00000+0  35087-3 0  9992
2 56730  86.6763  94.9333 0002449  88.8799 271.2704 14.80251248144779
